1 33331U 08042A   13221.82171973  .00000135  00000-0  34644-4 0  4410
2 33331  98.1387 295.2183 0009832   0.5336 359.5856 14.64418768263157

